CCSDS_OEM_VERS = 1.0
CREATION_DATE  = 2017-05-11T11:16:01
ORIGINATOR     = GMAT USER

META_START
OBJECT_NAME          = MOPSSat_alt_35785_km_RAAN_90_076
OBJECT_ID            = SatId
CENTER_NAME          = Earth
REF_FRAME            = EME2000
TIME_SYSTEM          = UTC
START_TIME           = 2017-01-01T00:00:00.000
USEABLE_START_TIME   = 2017-01-01T00:00:00.000
USEABLE_STOP_TIME    = 2017-01-02T00:00:00.000
STOP_TIME            = 2017-01-02T00:00:00.000
INTERPOLATION        = Lagrange
INTERPOLATION_DEGREE = 7 
META_STOP


                                                                                   

2017-01-01T06:43:20.000  -4.134035736805546e+04  -8.207562530773468e+03   1.444336191348829e+03   5.950282082725921e-01  -3.015833188678509e+00  -2.074864009230847e-02
2017-01-01T06:43:30.000  -4.133439610093154e+04  -8.237718678105231e+03   1.444128321197185e+03   5.972251862179946e-01  -3.015396129086215e+00  -2.082538918360506e-02
2017-01-01T06:43:40.000  -4.132841286558085e+04  -8.267870447120711e+03   1.443919683608661e+03   5.994218422145341e-01  -3.014957467829786e+00  -2.090212707080120e-02
2017-01-01T06:43:50.000  -4.132240766522453e+04  -8.298017821820018e+03   1.443710278695353e+03   6.016181750981440e-01  -3.014517205148576e+00  -2.097885371323567e-02
2017-01-01T06:44:00.000  -4.131638050309906e+04  -8.328160786190025e+03   1.443500106569896e+03   6.038141837037971e-01  -3.014075341283048e+00  -2.105556907021379e-02
2017-01-01T06:44:10.000  -4.131033138245517e+04  -8.358299324204103e+03   1.443289167345422e+03   6.060098668654914e-01  -3.013631876474705e+00  -2.113227310100666e-02
2017-01-01T06:44:20.000  -4.130426030661880e+04  -8.388433419532950e+03   1.443077461137688e+03   6.082052233951784e-01  -3.013186810970561e+00  -2.120896576411528e-02
2017-01-01T06:44:30.000  -4.129816727891007e+04  -8.418563055934368e+03   1.442864988062245e+03   6.104002521111632e-01  -3.012740145017187e+00  -2.128564701826253e-02
2017-01-01T06:44:40.000  -4.129205230267478e+04  -8.448688217099605e+03   1.442651748235545e+03   6.125949518269098e-01  -3.012291878863040e+00  -2.136231682200216e-02
2017-01-01T06:44:50.000  -4.128591538114665e+04  -8.478808887333305e+03   1.442437741770127e+03   6.147893214005730e-01  -3.011842012748343e+00  -2.143897513544908e-02
2017-01-01T06:45:00.000  -4.127975651758490e+04  -8.508925050873522e+03   1.442222968779424e+03   6.169833596854649e-01  -3.011390546915188e+00  -2.151562191854907e-02
2017-01-01T06:45:10.000  -4.127357571524350e+04  -8.539036692045600e+03   1.442007429376686e+03   6.191770655412634e-01  -3.010937481605278e+00  -2.159225713147017e-02
2017-01-01T06:45:20.000  -4.126737297744826e+04  -8.569143794871537e+03   1.441791123677667e+03   6.213704378055518e-01  -3.010482817065568e+00  -2.166888073360861e-02
2017-01-01T06:45:30.000  -4.126114830754049e+04  -8.599246343360188e+03   1.441574051798664e+03   6.235634753149623e-01  -3.010026553544146e+00  -2.174549268432736e-02
2017-01-01T06:45:40.000  -4.125490170887575e+04  -8.629344321507006e+03   1.441356213856470e+03   6.257561769051582e-01  -3.009568691290136e+00  -2.182209294295546e-02
2017-01-01T06:45:50.000  -4.124863318488684e+04  -8.659437713005269e+03   1.441137609970574e+03   6.279485413897944e-01  -3.009109230558319e+00  -2.189868146805311e-02
2017-01-01T06:46:00.000  -4.124234273900014e+04  -8.689526501635302e+03   1.440918240260239e+03   6.301405675888735e-01  -3.008648171602994e+00  -2.197525821840226e-02
2017-01-01T06:46:10.000  -4.123603037466881e+04  -8.719610671108187e+03   1.440698104845668e+03   6.323322543173604e-01  -3.008185514680420e+00  -2.205182315260877e-02
2017-01-01T06:46:20.000  -4.122969609522804e+04  -8.749690205756018e+03   1.440477203842946e+03   6.345236004354680e-01  -3.007721260038202e+00  -2.212837623085923e-02
2017-01-01T06:46:30.000  -4.122333990403999e+04  -8.779765089839868e+03   1.440255537369099e+03   6.367146047982416e-01  -3.007255407925909e+00  -2.220491741315965e-02
2017-01-01T06:46:40.000  -4.121696180445654e+04  -8.809835307728481e+03   1.440033105540798e+03   6.389052662685766e-01  -3.006787958592358e+00  -2.228144665979025e-02
2017-01-01T06:46:50.000  -4.121056179991872e+04  -8.839900843417605e+03   1.439809908477821e+03   6.410955836822014e-01  -3.006318912292886e+00  -2.235796393008218e-02
2017-01-01T06:47:00.000  -4.120413989387506e+04  -8.869961680926765e+03   1.439585946300210e+03   6.432855558765824e-01  -3.005848269283378e+00  -2.243446918342725e-02
2017-01-01T06:47:10.000  -4.119769608979971e+04  -8.900017804210662e+03   1.439361219128901e+03   6.454751816844704e-01  -3.005376029821586e+00  -2.251096237905252e-02
2017-01-01T06:47:20.000  -4.119123039118898e+04  -8.930069197183593e+03   1.439135727085602e+03   6.476644599356788e-01  -3.004902194166884e+00  -2.258744347608240e-02
2017-01-01T06:47:30.000  -4.118474280155350e+04  -8.960115843749081e+03   1.438909470292523e+03   6.498533894592419e-01  -3.004426762579680e+00  -2.266391243361406e-02
2017-01-01T06:47:40.000  -4.117823332441619e+04  -8.990157727810776e+03   1.438682448872302e+03   6.520419690842103e-01  -3.003949735321282e+00  -2.274036921074518e-02
2017-01-01T06:47:50.000  -4.117170196328950e+04  -9.020194833380050e+03   1.438454662947214e+03   6.542301976474880e-01  -3.003471112652225e+00  -2.281681376684779e-02
2017-01-01T06:48:00.000  -4.116514872169024e+04  -9.050227144504170e+03   1.438226112639684e+03   6.564180739886013e-01  -3.002990894833350e+00  -2.289324606138549e-02
2017-01-01T06:48:10.000  -4.115857360313965e+04  -9.080254645266374e+03   1.437996798072294e+03   6.586055969497017e-01  -3.002509082125822e+00  -2.296966605391359e-02
2017-01-01T06:48:20.000  -4.115197661114688e+04  -9.110277319857265e+03   1.437766719367204e+03   6.607927653807698e-01  -3.002025674789906e+00  -2.304607370426080e-02
2017-01-01T06:48:30.000  -4.114535774923315e+04  -9.140295152467581e+03   1.437535876646999e+03   6.629795781318018e-01  -3.001540673086755e+00  -2.312246897225641e-02
2017-01-01T06:48:40.000  -4.113871702093437e+04  -9.170308127277422e+03   1.437304270034772e+03   6.651660340520246e-01  -3.001054077278580e+00  -2.319885181770280e-02
2017-01-01T06:48:50.000  -4.113205442980622e+04  -9.200316228426043e+03   1.437071899654310e+03   6.673521319876968e-01  -3.000565887629048e+00  -2.327522220029860e-02
2017-01-01T06:49:00.000  -4.112536997943132e+04  -9.230319439988280e+03   1.436838765630336e+03   6.695378707803884e-01  -3.000076104403778e+00  -2.335158007957864e-02
2017-01-01T06:49:10.000  -4.111866367339877e+04  -9.260317746062590e+03   1.436604868087804e+03   6.717232492733992e-01  -2.999584727868864e+00  -2.342792541513814e-02
2017-01-01T06:49:20.000  -4.111193551539466e+04  -9.290311130376343e+03   1.436370207155050e+03   6.739082662829986e-01  -2.999091758297502e+00  -2.350425816562797e-02
2017-01-01T06:49:30.000  -4.110518550909293e+04  -9.320299576764271e+03   1.436134782959986e+03   6.760929206332862e-01  -2.998597195961985e+00  -2.358057828997256e-02
2017-01-01T06:49:40.000  -4.109841365819568e+04  -9.350283068990544e+03   1.435898595631507e+03   6.782772111432253e-01  -2.998101041136670e+00  -2.365688574691683e-02
2017-01-01T06:49:50.000  -4.109161996627774e+04  -9.380261591438475e+03   1.435661645294069e+03   6.804611366768912e-01  -2.997603294086570e+00  -2.373318049678167e-02
2017-01-01T06:50:00.000  -4.108480443694142e+04  -9.410235128422506e+03   1.435423932073090e+03   6.826446960933487e-01  -2.997103955078716e+00  -2.380946249971288e-02
2017-01-01T06:50:10.000  -4.107796707378199e+04  -9.440203664344215e+03   1.435185456093740e+03   6.848278882580143e-01  -2.996603024379614e+00  -2.388573171607816e-02
2017-01-01T06:50:20.000  -4.107110788047312e+04  -9.470167183303482e+03   1.434946217483926e+03   6.870107120143338e-01  -2.996100502261505e+00  -2.396198810547760e-02
2017-01-01T06:50:30.000  -4.106422686070425e+04  -9.500125669387389e+03   1.434706216372103e+03   6.891931662048262e-01  -2.995596388997776e+00  -2.403823162747891e-02
2017-01-01T06:50:40.000  -4.105732401817934e+04  -9.530079106669926e+03   1.434465452887238e+03   6.913752496710633e-01  -2.995090684862880e+00  -2.411446224161666e-02
2017-01-01T06:50:50.000  -4.105039935668623e+04  -9.560027478924680e+03   1.434223927161217e+03   6.935569612327388e-01  -2.994583390137400e+00  -2.419067990666108e-02
2017-01-01T06:51:00.000  -4.104345288000443e+04  -9.589970770012127e+03   1.433981639325643e+03   6.957382997158816e-01  -2.994074505101300e+00  -2.426688458160375e-02
2017-01-01T06:51:10.000  -4.103648459194100e+04  -9.619908963726974e+03   1.433738589513077e+03   6.979192639417384e-01  -2.993564030036564e+00  -2.434307622526904e-02
2017-01-01T06:51:20.000  -4.102949449617352e+04  -9.649842044473829e+03   1.433494777851565e+03   7.000998527759900e-01  -2.993051965215678e+00  -2.441925479803370e-02
2017-01-01T06:51:30.000  -4.102248259640695e+04  -9.679769996591505e+03   1.433250204470109e+03   7.022800650795303e-01  -2.992538310913129e+00  -2.449542026010715e-02
2017-01-01T06:51:40.000  -4.101544889633858e+04  -9.709692804505892e+03   1.433004869497444e+03   7.044598997196043e-01  -2.992023067402835e+00  -2.457157257192067e-02
2017-01-01T06:51:50.000  -4.100839339974611e+04  -9.739610452341714e+03   1.432758773065109e+03   7.066393555415222e-01  -2.991506234964592e+00  -2.464771169313926e-02
2017-01-01T06:52:00.000  -4.100131611042300e+04  -9.769522924210994e+03   1.432511915305197e+03   7.088184313896757e-01  -2.990987813879356e+00  -2.472383758339574e-02
2017-01-01T06:52:10.000  -4.099421703217748e+04  -9.799430204212771e+03   1.432264296350311e+03   7.109971261075165e-01  -2.990467804429147e+00  -2.479995020229011e-02
2017-01-01T06:52:20.000  -4.098709616890347e+04  -9.829332276146222e+03   1.432015916336048e+03   7.131754385166587e-01  -2.989946206902262e+00  -2.487604950865940e-02
